OBJECT_NAME,OBJECT_ID,EPOCH,MEAN_MOTION,ECCENTRICITY,INCLINATION,RA_OF_ASC_NODE,ARG_OF_PERICENTER,MEAN_ANOMALY,EPHEMERIS_TYPE,CLASSIFICATION_TYPE,NORAD_CAT_ID,ELEMENT_SET_NO,REV_AT_EPOCH,BSTAR,MEAN_MOTION_DOT,MEAN_MOTION_DDOT
KOREASAT 5 (MUGUNGWHA 5),2006-034A,2026-07-19T20:33:25.797312,1.00271944,.0001792,1.8676,82.5850,79.2410,197.2222,0,U,29349,999,4164,0,-.362E-5,0
DIRECTV 9S,2006-043A,2026-07-19T12:41:49.697088,1.00271628,.0005084,2.5024,80.5139,33.2794,272.7747,0,U,29494,999,5170,0,-.119E-5,0
OPTUS D1,2006-043B,2026-07-19T19:01:53.402016,1.00272260,.0003668,3.1168,79.2569,36.1762,259.5722,0,U,29495,999,7244,0,-.189E-5,0
BADR-4,2006-051A,2026-07-19T18:37:21.223776,1.00274099,.0004911,2.0870,80.7652,34.5313,136.0604,0,U,29526,999,5159,0,.151E-5,0
WILDBLUE-1,2006-054A,2026-07-19T12:38:57.473376,1.00272093,.0001465,2.8846,80.0771,32.6886,263.0707,0,U,29643,999,5411,0,-.55E-6,0
SKYNET 5A,2007-007B,2026-07-19T21:20:04.428096,1.00273055,.0003444,5.3802,73.3368,47.9778,231.5878,0,U,30794,999,7102,0,-.278E-5,0
ANIK F3,2007-009A,2026-07-19T17:44:44.545344,1.00272510,.0002645,1.2799,83.4653,34.3944,327.1242,0,U,31102,999,4689,0,-.5E-7,0
ASTRA 1L,2007-016A,2026-07-19T19:21:38.699424,1.00270878,.0005413,1.4041,81.3166,36.5904,85.5742,0,U,31306,999,4531,0,-.189E-5,0
GALAXY 17 (G-17),2007-016B,2026-07-19T19:36:57.539232,1.00271083,.0003747,3.0523,79.4908,37.6039,29.7157,0,U,31307,999,7013,0,-.211E-5,0
INTELSAT 11 (IS-11),2007-044B,2026-07-19T19:56:10.694976,0.99053086,.000441,3.6485,78.2739,99.3868,41.2514,0,U,32253,999,6877,0,-.234E-5,0
WGS F1 (USA 195),2007-046A,2026-07-19T19:37:38.639712,1.00269246,.0000082,0.0158,77.0714,121.3670,351.0474,0,U,32258,999,5266,0,-.271E-5,0
SKYNET 5B,2007-056B,2026-07-19T20:51:41.044320,1.00269513,.0003634,5.3318,73.1107,42.2585,160.3092,0,U,32294,999,6852,0,.134E-5,0
ASTRA 4A,2007-057A,2026-07-19T19:13:38.515872,1.00273309,.0002585,0.0492,271.8910,211.5475,107.3518,0,U,32299,999,5197,0,.29E-6,0
HORIZONS-2,2007-063B,2026-07-19T20:01:38.728128,1.00272677,.000363,2.6843,80.2275,18.8945,65.1022,0,U,32388,999,6814,0,-.258E-5,0
THURAYA-3,2008-001A,2026-07-19T17:15:38.606112,1.00273472,.0002307,6.0436,35.8282,78.8884,145.3999,0,U,32404,999,6781,0,.2E-7,0
THOR 5,2008-006A,2026-07-19T20:01:02.727840,1.00273201,.0002504,0.0607,250.5770,234.0955,112.4521,0,U,32487,999,6764,0,-.12E-6,0
AMC-14,2008-011A,2026-07-19T11:51:09.626688,1.00420323,.00390336,24.0475,20.1289,8.5552,167.4241,0,U,32708,999,6849,0,-.207E-5,0
DIRECTV 11,2008-013A,2026-07-19T14:38:38.662944,1.00270671,.0000143,0.0030,247.2069,167.6445,3.0106,0,U,32729,999,4591,0,-.129E-5,0
ICO G1,2008-016A,2026-07-19T12:44:11.971104,1.00272666,.0002229,5.5300,36.0285,74.7543,284.7449,0,U,32763,999,6686,0,-.179E-5,0
VINASAT-1,2008-018A,2026-07-19T18:30:38.796768,1.00271383,.0001714,0.0406,269.0478,219.8364,218.2648,0,U,32767,999,6691,0,-.332E-5,0
STAR ONE C2,2008-018B,2026-07-19T12:51:41.251968,1.00278517,.0002755,1.3211,82.1591,40.0903,303.0173,0,U,32768,999,6697,0,-.282E-5,0
AMOS-3,2008-022A,2026-07-19T20:58:17.856192,1.00489982,.0003183,0.5376,85.7642,82.4586,147.9253,0,U,32794,999,8266,0,-.33E-6,0
GALAXY 18 (G-18),2008-024A,2026-07-19T17:43:29.665056,1.00273194,.0002882,0.0096,2.7298,116.3638,321.2846,0,U,32951,999,4617,0,.21E-6,0
ZHONGXING-9,2008-028A,2026-07-19T20:27:33.859872,1.00272890,.0003353,0.8505,84.9400,28.7047,223.2305,0,U,33051,999,6636,0,-.252E-5,0
SKYNET 5C,2008-030A,2026-07-19T19:56:10.694976,1.00272468,.0004311,3.8704,76.6531,48.1454,94.0708,0,U,33055,999,6628,0,-.145E-5,0
TURKSAT 3A,2008-030B,2026-07-19T20:13:12.736128,1.00273091,.0004984,0.0468,79.0225,20.0284,183.8491,0,U,33056,999,5268,0,.143E-5,0
ECHOSTAR 11,2008-035A,2026-07-19T14:38:38.662944,1.00271678,.0002355,1.0872,83.8118,26.0269,297.4044,0,U,33207,999,5153,0,-.62E-6,0
SUPERBIRD-C2,2008-038A,2026-07-19T18:57:23.833152,1.00271400,.0006359,2.4432,80.8596,39.7244,237.3388,0,U,33274,999,10605,0,-.311E-5,0
INMARSAT 4-F3,2008-039A,2026-07-19T13:32:38.709024,1.00273255,.000269,4.3203,31.6968,93.5323,277.2976,0,U,33278,999,4687,0,-.146E-5,0
NIMIQ 4,2008-044A,2026-07-19T19:37:49.956384,1.00270547,.000182,0.0203,54.3348,55.7911,39.9263,0,U,33373,999,6531,0,-.223E-5,0
GALAXY 19 (G-19),2008-045A,2026-07-19T19:33:27.874080,1.00271039,.0002564,0.0463,242.8627,245.7551,5.3392,0,U,33376,999,6523,0,-.142E-5,0
ASTRA 1M,2008-057A,2026-07-19T20:45:37.651104,1.00272081,.000466,0.3785,82.8533,43.4274,142.1341,0,U,33436,999,4606,0,.117E-5,0
