KOREASAT 5 (MUGUNGWHA 5)
1 29349U 06034A   26200.85654858 -.00000362  00000+0  00000+0 0  9999
2 29349   1.8676  82.5850 0001792  79.2410 197.2222  1.00271944 41645
DIRECTV 9S              
1 29494U 06043A   26200.52904742 -.00000119  00000+0  00000+0 0  9994
2 29494   2.5024  80.5139 0005084  33.2794 272.7747  1.00271628 51700
OPTUS D1                
1 29495U 06043B   26200.79297919 -.00000189  00000+0  00000+0 0  9992
2 29495   3.1168  79.2569 0003668  36.1762 259.5722  1.00272260 72445
BADR-4                  
1 29526U 06051A   26200.77594009  .00000151  00000+0  00000+0 0  9992
2 29526   2.0870  80.7652 0004911  34.5313 136.0604  1.00274099 51597
WILDBLUE-1              
1 29643U 06054A   26200.52705409 -.00000055  00000+0  00000+0 0  9990
2 29643   2.8846  80.0771 0001465  32.6886 263.0707  1.00272093 54116
SKYNET 5A               
1 30794U 07007B   26200.88894014 -.00000278  00000+0  00000+0 0  9995
2 30794   5.3802  73.3368 0003444  47.9778 231.5878  1.00273055 71027
ANIK F3                 
1 31102U 07009A   26200.73940446 -.00000005  00000+0  00000+0 0  9994
2 31102   1.2799  83.4653 0002645  34.3944 327.1242  1.00272510 46896
ASTRA 1L                
1 31306U 07016A   26200.80669791 -.00000189  00000+0  00000+0 0  9990
2 31306   1.4041  81.3166 0005413  36.5904  85.5742  1.00270878 45317
GALAXY 17 (G-17)        
1 31307U 07016B   26200.81733263 -.00000211  00000+0  00000+0 0  9994
2 31307   3.0523  79.4908 0003747  37.6039  29.7157  1.00271083 70139
INTELSAT 11 (IS-11)     
1 32253U 07044B   26200.83067934 -.00000234  00000+0  00000+0 0  9998
2 32253   3.6485  78.2739 0004410  99.3868  41.2514  0.99053086 68776
WGS F1 (USA 195)        
1 32258U 07046A   26200.81780833 -.00000271  00000+0  00000+0 0  9994
2 32258   0.0158  77.0714 0000082 121.3670 351.0474  1.00269246 52665
SKYNET 5B               
1 32294U 07056B   26200.86922505  .00000134  00000+0  00000+0 0  9991
2 32294   5.3318  73.1107 0003634  42.2585 160.3092  1.00269513 68522
ASTRA 4A                
1 32299U 07057A   26200.80114023  .00000029  00000+0  00000+0 0  9992
2 32299   0.0492 271.8910 0002585 211.5475 107.3518  1.00273309 51977
HORIZONS-2              
1 32388U 07063B   26200.83447602 -.00000258  00000+0  00000+0 0  9998
2 32388   2.6843  80.2275 0003630  18.8945  65.1022  1.00272677 68147
THURAYA-3               
1 32404U 08001A   26200.71919683  .00000002  00000+0  00000+0 0  9996
2 32404   6.0436  35.8282 0002307  78.8884 145.3999  1.00273472 67815
THOR 5                  
1 32487U 08006A   26200.83405935 -.00000012  00000+0  00000+0 0  9997
2 32487   0.0607 250.5770 0002504 234.0955 112.4521  1.00273201 67649
AMC-14                  
1 32708U 08011A   26200.49386142 -.00000207  00000+0  00000+0 0  9995
2 32708  24.0475  20.1289 0039033   8.5552 167.4241  1.00420323 68496
DIRECTV 11              
1 32729U 08013A   26200.61016971 -.00000129  00000+0  00000+0 0  9997
2 32729   0.0030 247.2069 0000143 167.6445   3.0106  1.00270671 45912
ICO G1                  
1 32763U 08016A   26200.53069411 -.00000179  00000+0  00000+0 0  9991
2 32763   5.5300  36.0285 0002229  74.7543 284.7449  1.00272666 66869
VINASAT-1               
1 32767U 08018A   26200.77128237 -.00000332  00000+0  00000+0 0  9996
2 32767   0.0406 269.0478 0001714 219.8364 218.2648  1.00271383 66917
STAR ONE C2             
1 32768U 08018B   26200.53589412 -.00000282  00000+0  00000+0 0  9991
2 32768   1.3211  82.1591 0002755  40.0903 303.0173  1.00278517 66973
AMOS-3                  
1 32794U 08022A   26200.87381778 -.00000033  00000+0  00000+0 0  9991
2 32794   0.5376  85.7642 0003183  82.4586 147.9253  1.00489982 82662
GALAXY 18 (G-18)        
1 32951U 08024A   26200.73853779  .00000021  00000+0  00000+0 0  9994
2 32951   0.0096   2.7298 0002882 116.3638 321.2846  1.00273194 46174
ZHONGXING-9             
1 33051U 08028A   26200.85247523 -.00000252  00000+0  00000+0 0  9994
2 33051   0.8505  84.9400 0003353  28.7047 223.2305  1.00272890 66366
SKYNET 5C               
1 33055U 08030A   26200.83067934 -.00000145  00000+0  00000+0 0  9996
2 33055   3.8704  76.6531 0004311  48.1454  94.0708  1.00272468 66283
TURKSAT 3A              
1 33056U 08030B   26200.84250852  .00000143  00000+0  00000+0 0  9998
2 33056   0.0468  79.0225 0004984  20.0284 183.8491  1.00273091 52681
ECHOSTAR 11             
1 33207U 08035A   26200.61016971 -.00000062  00000+0  00000+0 0  9999
2 33207   1.0872  83.8118 0002355  26.0269 297.4044  1.00271678 51530
SUPERBIRD-C2            
1 33274U 08038A   26200.78985918 -.00000311  00000+0  00000+0 0  9997
2 33274   2.4432  80.8596 0006359  39.7244 237.3388  1.00271400106055
INMARSAT 4-F3           
1 33278U 08039A   26200.56433691 -.00000146  00000+0  00000+0 0  9990
2 33278   4.3203  31.6968 0002690  93.5323 277.2976  1.00273255 46872
NIMIQ 4                 
1 33373U 08044A   26200.81793931 -.00000223  00000+0  00000+0 0  9992
2 33373   0.0203  54.3348 0001820  55.7911  39.9263  1.00270547 65315
GALAXY 19 (G-19)        
1 33376U 08045A   26200.81490595 -.00000142  00000+0  00000+0 0  9996
2 33376   0.0463 242.8627 0002564 245.7551   5.3392  1.00271039 65235
ASTRA 1M                
1 33436U 08057A   26200.86501911  .00000117  00000+0  00000+0 0  9997
2 33436   0.3785  82.8533 0004660  43.4274 142.1341  1.00272081 46066
